start=new Date('2022-08-17T00:00:00.000Z').valueOf();
sats=[{"SEMIMAJOR_AXIS":"6925.371","EPOCH":"2022-08-16T03:16:47.634816","REF_FRAME":"TEME","MEAN_ANOMALY":"290.3809","EPHEMERIS_TYPE":"0","OBJECT_ID":"2021-036AA","COUNTRY_CODE":"US","ELEMENT_SET_NO":"999","ECCENTRICITY":"0.00015610","LAUNCH_DATE":"2021-04-29","BSTAR":"0.00000858950000","INCLINATION":"53.0528","RA_OF_ASC_NODE":"174.5110","TIME_SYSTEM":"UTC","REV_AT_EPOCH":"7200","CENTER_NAME":"EARTH","OBJECT_TYPE":"PAYLOAD","MEAN_MOTION_DDOT":"0.0000000000000","OBJECT_NAME":"STARLINK-2538","TLE_LINE1":"1 48300U 21036AA  22228.13666244 -.00000154  00000-0  85895-5 0  9996","GP_ID":"210336145","RCS_SIZE":"LARGE","MEAN_ELEMENT_THEORY":"SGP4","NORAD_CAT_ID":"48300","PERIOD":"95.593","CLASSIFICATION_TYPE":"U","ARG_OF_PERICENTER":"69.7347","PERIAPSIS":"546.155","DECAY_DATE":null,"MEAN_MOTION_DOT":"-0.00000154","MEAN_MOTION":"15.06392662","TLE_LINE2":"2 48300  53.0528 174.5110 0001561  69.7347 290.3809 15.06392662 72008","SITE":"AFETR","APOAPSIS":"548.317","FILE":"3537973"},{"OBJECT_TYPE":"PAYLOAD","CENTER_NAME":"EARTH","REV_AT_EPOCH":"7201","TIME_SYSTEM":"UTC","OBJECT_NAME":"STARLINK-2537","MEAN_MOTION_DDOT":"0.0000000000000","RA_OF_ASC_NODE":"173.9451","INCLINATION":"53.0541","LAUNCH_DATE":"2021-04-29","ECCENTRICITY":"0.00014640","BSTAR":"-0.00001372700000","EPHEMERIS_TYPE":"0","REF_FRAME":"TEME","SEMIMAJOR_AXIS":"6925.366","EPOCH":"2022-08-16T06:22:34.150656","MEAN_ANOMALY":"287.3133","COUNTRY_CODE":"US","OBJECT_ID":"2021-036AB","ELEMENT_SET_NO":"999","TLE_LINE2":"2 48301  53.0541 173.9451 0001464  72.8017 287.3133 15.06394321 72017","FILE":"3537973","APOAPSIS":"548.245","SITE":"AFETR","DECAY_DATE":null,"PERIAPSIS":"546.217","MEAN_MOTION":"15.06394321","MEAN_MOTION_DOT":"-0.00000486","MEAN_ELEMENT_THEORY":"SGP4","NORAD_CAT_ID":"48301","ARG_OF_PERICENTER":"72.8017","CLASSIFICATION_TYPE":"U","PERIOD":"95.593","TLE_LINE1":"1 48301U 21036AB  22228.26567304 -.00000486  00000-0 -13727-4 0  9991","RCS_SIZE":"LARGE","GP_ID":"210336895"},{"GP_ID":"210365871","RCS_SIZE":"LARGE","TLE_LINE1":"1 48302U 21036AC  22228.85910426 -.00000335  00000-0 -35725-5 0  9990","PERIOD":"95.592","CLASSIFICATION_TYPE":"U","ARG_OF_PERICENTER":"72.5564","NORAD_CAT_ID":"48302","MEAN_ELEMENT_THEORY":"SGP4","MEAN_MOTION_DOT":"-0.00000335","MEAN_MOTION":"15.06396666","PERIAPSIS":"546.096","DECAY_DATE":null,"SITE":"AFETR","APOAPSIS":"548.351","FILE":"3538178","TLE_LINE2":"2 48302  53.0537 171.2674 0001628  72.5564 287.5603 15.06396666 72105","ELEMENT_SET_NO":"999","COUNTRY_CODE":"US","OBJECT_ID":"2021-036AC","SEMIMAJOR_AXIS":"6925.359","EPOCH":"2022-08-16T20:37:06.608064","MEAN_ANOMALY":"287.5603","REF_FRAME":"TEME","EPHEMERIS_TYPE":"0","BSTAR":"-0.00000357250000","ECCENTRICITY":"0.00016280","LAUNCH_DATE":"2021-04-29","RA_OF_ASC_NODE":"171.2674","INCLINATION":"53.0537","MEAN_MOTION_DDOT":"0.0000000000000","OBJECT_NAME":"STARLINK-2556","TIME_SYSTEM":"UTC","CENTER_NAME":"EARTH","REV_AT_EPOCH":"7210","OBJECT_TYPE":"PAYLOAD"},{"TIME_SYSTEM":"UTC","OBJECT_TYPE":"PAYLOAD","CENTER_NAME":"EARTH","REV_AT_EPOCH":"7201","MEAN_MOTION_DDOT":"0.0000000000000","OBJECT_NAME":"STARLINK-2530","INCLINATION":"53.0542","RA_OF_ASC_NODE":"173.9696","ECCENTRICITY":"0.00015890","LAUNCH_DATE":"2021-04-29","BSTAR":"0.00009173700000","SEMIMAJOR_AXIS":"6925.376","EPOCH":"2022-08-16T06:10:34.973472","REF_FRAME":"TEME","MEAN_ANOMALY":"290.8287","EPHEMERIS_TYPE":"0","OBJECT_ID":"2021-036AD","COUNTRY_CODE":"US","ELEMENT_SET_NO":"999","TLE_LINE2":"2 48303  53.0542 173.9696 0001589  69.2872 290.8287 15.06391000 72018","SITE":"AFETR","APOAPSIS":"548.342","FILE":"3537973","PERIAPSIS":"546.141","DECAY_DATE":null,"MEAN_MOTION":"15.06391000","MEAN_MOTION_DOT":"0.00001085","NORAD_CAT_ID":"48303","MEAN_ELEMENT_THEORY":"SGP4","PERIOD":"95.593","ARG_OF_PERICENTER":"69.2872","CLASSIFICATION_TYPE":"U","TLE_LINE1":"1 48303U 21036AD  22228.25734923  .00001085  00000-0  91737-4 0  9996","RCS_SIZE":"LARGE","GP_ID":"210337897"},{"NORAD_CAT_ID":"48304","MEAN_ELEMENT_THEORY":"SGP4","CLASSIFICATION_TYPE":"U","ARG_OF_PERICENTER":"69.2384","PERIOD":"95.592","TLE_LINE1":"1 48304U 21036AE  22228.25461090  .00001130  00000-0  94754-4 0  9992","GP_ID":"210336645","RCS_SIZE":"LARGE","TLE_LINE2":"2 48304  53.0535 173.9874 0001579  69.2384 290.8774 15.06395719 72018","FILE":"3537973","APOAPSIS":"548.320","SITE":"AFETR","DECAY_DATE":null,"PERIAPSIS":"546.133","MEAN_MOTION_DOT":"0.00001130","MEAN_MOTION":"15.06395719","LAUNCH_DATE":"2021-04-29","ECCENTRICITY":"0.00015790","BSTAR":"0.00009475400000","EPHEMERIS_TYPE":"0","SEMIMAJOR_AXIS":"6925.362","REF_FRAME":"TEME","EPOCH":"2022-08-16T06:06:38.381760","MEAN_ANOMALY":"290.8774","OBJECT_ID":"2021-036AE","COUNTRY_CODE":"US","ELEMENT_SET_NO":"999","REV_AT_EPOCH":"7201","CENTER_NAME":"EARTH","OBJECT_TYPE":"PAYLOAD","TIME_SYSTEM":"UTC","OBJECT_NAME":"STARLINK-2524","MEAN_MOTION_DDOT":"0.0000000000000","INCLINATION":"53.0535","RA_OF_ASC_NODE":"173.9874"},{"MEAN_MOTION_DDOT":"0.0000000000000","OBJECT_NAME":"STARLINK-2519","TIME_SYSTEM":"UTC","OBJECT_TYPE":"PAYLOAD","REV_AT_EPOCH":"7201","CENTER_NAME":"EARTH","INCLINATION":"53.0550","RA_OF_ASC_NODE":"174.0107","BSTAR":"0.00017291000000","ECCENTRICITY":"0.00016290","LAUNCH_DATE":"2021-04-29","COUNTRY_CODE":"US","ELEMENT_SET_NO":"999","OBJECT_ID":"2021-036AF","EPOCH":"2022-08-16T05:59:58.766208","SEMIMAJOR_AXIS":"6925.365","REF_FRAME":"TEME","MEAN_ANOMALY":"288.0356","EPHEMERIS_TYPE":"0","SITE":"AFETR","FILE":"3537973","APOAPSIS":"548.358","TLE_LINE2":"2 48305  53.0550 174.0107 0001629  72.0811 288.0356 15.06394724 72010","MEAN_MOTION":"15.06394724","MEAN_MOTION_DOT":"0.00002295","PERIAPSIS":"546.102","DECAY_DATE":null,"PERIOD":"95.592","ARG_OF_PERICENTER":"72.0811","CLASSIFICATION_TYPE":"U","MEAN_ELEMENT_THEORY":"SGP4","NORAD_CAT_ID":"48305","RCS_SIZE":"LARGE","GP_ID":"210336396","TLE_LINE1":"1 48305U 21036AF  22228.24998572  .00002295  00000-0  17291-3 0  9995"},{"TLE_LINE1":"1 48306U 21036AG  22228.24723387  .00003456  00000-0  25079-3 0  9999","RCS_SIZE":"LARGE","GP_ID":"210337647","NORAD_CAT_ID":"48306","MEAN_ELEMENT_THEORY":"SGP4","ARG_OF_PERICENTER":"67.9202","CLASSIFICATION_TYPE":"U","PERIOD":"95.592","DECAY_DATE":null,"PERIAPSIS":"546.055","MEAN_MOTION":"15.06401468","MEAN_MOTION_DOT":"0.00003456","TLE_LINE2":"2 48306  53.0533 174.0239 0001666  67.9202 292.1963 15.06401468 72010","FILE":"3537973","APOAPSIS":"548.363","SITE":"AFETR","EPHEMERIS_TYPE":"0","SEMIMAJOR_AXIS":"6925.344","MEAN_ANOMALY":"292.1963","EPOCH":"2022-08-16T05:56:01.006368","REF_FRAME":"TEME","COUNTRY_CODE":"US","ELEMENT_SET_NO":"999","OBJECT_ID":"2021-036AG","LAUNCH_DATE":"2021-04-29","ECCENTRICITY":"0.00016660","BSTAR":"0.00025079000000","INCLINATION":"53.0533","RA_OF_ASC_NODE":"174.0239","OBJECT_TYPE":"PAYLOAD","CENTER_NAME":"EARTH","REV_AT_EPOCH":"7201","TIME_SYSTEM":"UTC","OBJECT_NAME":"STARLINK-2523","MEAN_MOTION_DDOT":"0.0000000000000"},{"COUNTRY_CODE":"US","ELEMENT_SET_NO":"999","OBJECT_ID":"2021-036AH","EPOCH":"2022-08-16T20:10:34.269024","SEMIMAJOR_AXIS":"6925.352","REF_FRAME":"TEME","MEAN_ANOMALY":"284.7581","EPHEMERIS_TYPE":"0","BSTAR":"-0.00000623180000","ECCENTRICITY":"0.00015600","LAUNCH_DATE":"2021-04-29","RA_OF_ASC_NODE":"171.3653","INCLINATION":"53.0547","MEAN_MOTION_DDOT":"0.0000000000000","OBJECT_NAME":"STARLINK-2528","TIME_SYSTEM":"UTC","OBJECT_TYPE":"PAYLOAD","CENTER_NAME":"EARTH","REV_AT_EPOCH":"7210","RCS_SIZE":"LARGE","GP_ID":"210366122","TLE_LINE1":"1 48307U 21036AH  22228.84067441 -.00000374  00000-0 -62318-5 0  9995","PERIOD":"95.592","ARG_OF_PERICENTER":"75.3581","CLASSIFICATION_TYPE":"U","MEAN_ELEMENT_THEORY":"SGP4","NORAD_CAT_ID":"48307","MEAN_MOTION":"15.06398715","MEAN_MOTION_DOT":"-0.00000374","PERIAPSIS":"546.137","DECAY_DATE":null,"SITE":"AFETR","APOAPSIS":"548.298","FILE":"3538178","TLE_LINE2":"2 48307  53.0547 171.3653 0001560  75.3581 284.7581 15.06398715 72105"},{"GP_ID":"210336146","RCS_SIZE":"LARGE","TLE_LINE1":"1 48308U 21036AJ  22228.23986685  .00002935  00000-0  21584-3 0  9990","CLASSIFICATION_TYPE":"U","ARG_OF_PERICENTER":"61.6513","PERIOD":"95.592","MEAN_ELEMENT_THEORY":"SGP4","NORAD_CAT_ID":"48308","MEAN_MOTION_DOT":"0.00002935","MEAN_MOTION":"15.06398165","DECAY_DATE":null,"PERIAPSIS":"545.824","APOAPSIS":"548.615","FILE":"3537973","SITE":"AFETR","TLE_LINE2":"2 48308  53.0538 174.0537 0002015  61.6513 298.4679 15.06398165 72015","ELEMENT_SET_NO":"999","COUNTRY_CODE":"US","OBJECT_ID":"2021-036AJ","EPHEMERIS_TYPE":"0","EPOCH":"2022-08-16T05:45:24.495840","SEMIMAJOR_AXIS":"6925.354","REF_FRAME":"TEME","MEAN_ANOMALY":"298.4679","BSTAR":"0.00021584000000","LAUNCH_DATE":"2021-04-29","ECCENTRICITY":"0.00020150","RA_OF_ASC_NODE":"174.0537","INCLINATION":"53.0538","OBJECT_NAME":"STARLINK-2532","MEAN_MOTION_DDOT":"0.0000000000000","CENTER_NAME":"EARTH","REV_AT_EPOCH":"7201","OBJECT_TYPE":"PAYLOAD","TIME_SYSTEM":"UTC"},{"TIME_SYSTEM":"UTC","OBJECT_TYPE":"PAYLOAD","CENTER_NAME":"EARTH","REV_AT_EPOCH":"7210","MEAN_MOTION_DDOT":"0.0000000000000","OBJECT_NAME":"STARLINK-2517","INCLINATION":"53.0542","RA_OF_ASC_NODE":"171.4031","ECCENTRICITY":"0.00017690","LAUNCH_DATE":"2021-04-29","BSTAR":"0.00002013400000","SEMIMAJOR_AXIS":"6925.369","MEAN_ANOMALY":"279.8531","REF_FRAME":"TEME","EPOCH":"2022-08-16T19:59:57.264288","EPHEMERIS_TYPE":"0","ELEMENT_SET_NO":"999","COUNTRY_CODE":"US","OBJECT_ID":"2021-036AK","TLE_LINE2":"2 48309  53.0542 171.4031 0001769  80.2657 279.8531 15.06393372 72107","SITE":"AFETR","FILE":"3538178","APOAPSIS":"548.459","PERIAPSIS":"546.009","DECAY_DATE":null,"MEAN_MOTION":"15.06393372","MEAN_MOTION_DOT":"0.00000018","MEAN_ELEMENT_THEORY":"SGP4","NORAD_CAT_ID":"48309","PERIOD":"95.593","ARG_OF_PERICENTER":"80.2657","CLASSIFICATION_TYPE":"U","TLE_LINE1":"1 48309U 21036AK  22228.83330167  .00000018  00000-0  20134-4 0  9996","RCS_SIZE":"LARGE","GP_ID":"210367124"}];
